SL-8 R/B                
1 11574U 79089B   26076.23630852  .00000290  00000+0  95719-4 0  9996
2 11574  74.0669  77.0721 0017055 248.9326 111.0007 14.42355985437198
SL-14 R/B               
1 11672U 80005B   26076.11018645  .00000505  00000+0  48420-4 0  9998
2 11672  82.5132 300.1968 0016767 134.7738 225.4848 14.90938805477599
SL-8 R/B                
1 12139U 81003B   26076.28490913  .00018391  00000+0  46761-3 0  9993
2 12139  82.9369 283.0004 0261493 152.1693 209.3819 15.11302582315823
SL-3 R/B                
1 12465U 81046B   26076.24649388  .00009118  00000+0  21053-3 0  9994
2 12465  81.2285 280.6683 0018965 356.0259   4.0830 15.42189543439595
SL-3 R/B                
1 12904U 81103B   26076.26986674  .00004215  00000+0  18609-3 0  9996
2 12904  81.1598 204.5401 0012450 259.4442 100.5387 15.21472131974380
SL-3 R/B                
1 13068U 82013B   26076.27482469  .00003628  00000+0  15626-3 0  9996
2 13068  81.1761 151.8815 0023065 152.2233 208.0236 15.22092321405509
SL-3 R/B                
1 13154U 82039B   26076.27679949  .00002147  00000+0  12904-3 0  9992
2 13154  81.1578 207.2144 0029371 299.6114  60.2185 15.10125872382782
SL-3 R/B                
1 13403U 82079B   26076.21323355  .00004796  00000+0  18996-3 0  9993
2 13403  81.1490 184.1946 0025290 139.8511 220.4597 15.24912610378845
SL-14 R/B               
1 13553U 82092B   26076.18052194  .00000419  00000+0  44313-4 0  9991
2 13553  82.5680 134.3931 0018762 276.8338 137.3451 14.86673476330049
SL-3 R/B                
1 13819U 83010B   26076.20177449  .00012185  00000+0  24242-3 0  9992
2 13819  81.1067 353.0368 0017267  26.5324 333.6801 15.46629379359104
SL-3 R/B                
1 14208U 83075B   26076.23172747  .00008448  00000+0  22234-3 0  9991
2 14208  97.6136  81.0953 0020885 197.5339 162.5187 15.38601451331310
COSMOS 1536             
1 14699U 84013A   26076.33694529  .00005277  00000+0  21662-3 0  9997
2 14699  82.5415 100.2465 0012514 252.6996 107.2872 15.23928442273780
SL-14 R/B               
1 14820U 84027B   26076.16757393  .00000478  00000+0  51921-4 0  9998
2 14820  82.5396 237.9979 0016822 311.9398  48.0384 14.85984488248740
SL-8 R/B                
1 15483U 85006B   26075.97493373  .00000312  00000+0  11216-3 0  9994
2 15483  74.0434 247.7412 0018137 163.6073 315.0837 14.37788640155071
SL-12 R/B(2)            
1 15772U 85042D   26076.28180976  .00000039  00000+0  38936-4 0  9997
2 15772  71.1065  71.6871 0033009 115.6258 255.8529 14.21984561115472
SL-14 R/B               
1 15945U 85069B   26076.21740516  .00000484  00000+0  51834-4 0  9999
2 15945  82.5297  17.8559 0019164 162.7944 197.3926 14.86441874173957
SL-16 R/B               
1 16182U 85097B   26076.18826806  .00000175  00000+0  11179-3 0  9991
2 16182  71.0014 124.7680 0009681 250.4589 166.3695 14.16598826 88291
