[{"OBJECT_NAME":"SL-8 R/B","OBJECT_ID":"1979-089B","EPOCH":"2026-03-17T05:40:17.056128","MEAN_MOTION":14.42355985,"ECCENTRICITY":0.00170555,"INCLINATION":74.0669,"RA_OF_ASC_NODE":77.0721,"ARG_OF_PERICENTER":248.9326,"MEAN_ANOMALY":111.0007,"EPHEMERIS_TYPE":0,"CLASSIFICATION_TYPE":"U","NORAD_CAT_ID":11574,"ELEMENT_SET_NO":999,"REV_AT_EPOCH":43719,"BSTAR":9.5718919e-5,"MEAN_MOTION_DOT":2.9e-6,"MEAN_MOTION_DDOT":0},{"OBJECT_NAME":"SL-14 R/B","OBJECT_ID":"1980-005B","EPOCH":"2026-03-17T02:38:40.109280","MEAN_MOTION":14.90938805,"ECCENTRICITY":0.00167671,"INCLINATION":82.5132,"RA_OF_ASC_NODE":300.1968,"ARG_OF_PERICENTER":134.7738,"MEAN_ANOMALY":225.4848,"EPHEMERIS_TYPE":0,"CLASSIFICATION_TYPE":"U","NORAD_CAT_ID":11672,"ELEMENT_SET_NO":999,"REV_AT_EPOCH":47759,"BSTAR":4.8420365e-5,"MEAN_MOTION_DOT":5.05e-6,"MEAN_MOTION_DDOT":0},{"OBJECT_NAME":"SL-8 R/B","OBJECT_ID":"1981-003B","EPOCH":"2026-03-17T06:50:16.148832","MEAN_MOTION":15.11302582,"ECCENTRICITY":0.0261493,"INCLINATION":82.9369,"RA_OF_ASC_NODE":283.0004,"ARG_OF_PERICENTER":152.1693,"MEAN_ANOMALY":209.3819,"EPHEMERIS_TYPE":0,"CLASSIFICATION_TYPE":"U","NORAD_CAT_ID":12139,"ELEMENT_SET_NO":999,"REV_AT_EPOCH":31582,"BSTAR":0.00046760562,"MEAN_MOTION_DOT":0.00018391,"MEAN_MOTION_DDOT":0},{"OBJECT_NAME":"SL-3 R/B","OBJECT_ID":"1981-046B","EPOCH":"2026-03-17T05:54:57.071232","MEAN_MOTION":15.42189543,"ECCENTRICITY":0.00189656,"INCLINATION":81.2285,"RA_OF_ASC_NODE":280.6683,"ARG_OF_PERICENTER":356.0259,"MEAN_ANOMALY":4.083,"EPHEMERIS_TYPE":0,"CLASSIFICATION_TYPE":"U","NORAD_CAT_ID":12465,"ELEMENT_SET_NO":999,"REV_AT_EPOCH":43959,"BSTAR":0.0002105285,"MEAN_MOTION_DOT":9.118e-5,"MEAN_MOTION_DDOT":0},{"OBJECT_NAME":"SL-3 R/B","OBJECT_ID":"1981-103B","EPOCH":"2026-03-17T06:28:36.486336","MEAN_MOTION":15.21472131,"ECCENTRICITY":0.00124504,"INCLINATION":81.1598,"RA_OF_ASC_NODE":204.5401,"ARG_OF_PERICENTER":259.4442,"MEAN_ANOMALY":100.5387,"EPHEMERIS_TYPE":0,"CLASSIFICATION_TYPE":"U","NORAD_CAT_ID":12904,"ELEMENT_SET_NO":999,"REV_AT_EPOCH":97438,"BSTAR":0.00018608541,"MEAN_MOTION_DOT":4.215e-5,"MEAN_MOTION_DDOT":0},{"OBJECT_NAME":"SL-3 R/B","OBJECT_ID":"1982-013B","EPOCH":"2026-03-17T06:35:44.853216","MEAN_MOTION":15.22092321,"ECCENTRICITY":0.00230657,"INCLINATION":81.1761,"RA_OF_ASC_NODE":151.8815,"ARG_OF_PERICENTER":152.2233,"MEAN_ANOMALY":208.0236,"EPHEMERIS_TYPE":0,"CLASSIFICATION_TYPE":"U","NORAD_CAT_ID":13068,"ELEMENT_SET_NO":999,"REV_AT_EPOCH":40550,"BSTAR":0.00015625927,"MEAN_MOTION_DOT":3.628e-5,"MEAN_MOTION_DDOT":0},{"OBJECT_NAME":"SL-3 R/B","OBJECT_ID":"1982-039B","EPOCH":"2026-03-17T06:38:35.475936","MEAN_MOTION":15.10125872,"ECCENTRICITY":0.00293719,"INCLINATION":81.1578,"RA_OF_ASC_NODE":207.2144,"ARG_OF_PERICENTER":299.6114,"MEAN_ANOMALY":60.2185,"EPHEMERIS_TYPE":0,"CLASSIFICATION_TYPE":"U","NORAD_CAT_ID":13154,"ELEMENT_SET_NO":999,"REV_AT_EPOCH":38278,"BSTAR":0.00012903889,"MEAN_MOTION_DOT":2.147e-5,"MEAN_MOTION_DDOT":0},{"OBJECT_NAME":"SL-3 R/B","OBJECT_ID":"1982-079B","EPOCH":"2026-03-17T05:07:03.378720","MEAN_MOTION":15.2491261,"ECCENTRICITY":0.00252904,"INCLINATION":81.149,"RA_OF_ASC_NODE":184.1946,"ARG_OF_PERICENTER":139.8511,"MEAN_ANOMALY":220.4597,"EPHEMERIS_TYPE":0,"CLASSIFICATION_TYPE":"U","NORAD_CAT_ID":13403,"ELEMENT_SET_NO":999,"REV_AT_EPOCH":37884,"BSTAR":0.00018996321,"MEAN_MOTION_DOT":4.796e-5,"MEAN_MOTION_DDOT":0},{"OBJECT_NAME":"SL-14 R/B","OBJECT_ID":"1982-092B","EPOCH":"2026-03-17T04:19:57.095616","MEAN_MOTION":14.86673476,"ECCENTRICITY":0.00187622,"INCLINATION":82.568,"RA_OF_ASC_NODE":134.3931,"ARG_OF_PERICENTER":276.8338,"MEAN_ANOMALY":137.3451,"EPHEMERIS_TYPE":0,"CLASSIFICATION_TYPE":"U","NORAD_CAT_ID":13553,"ELEMENT_SET_NO":999,"REV_AT_EPOCH":33004,"BSTAR":4.4312946e-5,"MEAN_MOTION_DOT":4.19e-6,"MEAN_MOTION_DDOT":0},{"OBJECT_NAME":"SL-3 R/B","OBJECT_ID":"1983-010B","EPOCH":"2026-03-17T04:50:33.315936","MEAN_MOTION":15.46629379,"ECCENTRICITY":0.00172676,"INCLINATION":81.1067,"RA_OF_ASC_NODE":353.0368,"ARG_OF_PERICENTER":26.5324,"MEAN_ANOMALY":333.6801,"EPHEMERIS_TYPE":0,"CLASSIFICATION_TYPE":"U","NORAD_CAT_ID":13819,"ELEMENT_SET_NO":999,"REV_AT_EPOCH":35910,"BSTAR":0.00024242377,"MEAN_MOTION_DOT":0.00012185,"MEAN_MOTION_DDOT":0},{"OBJECT_NAME":"SL-3 R/B","OBJECT_ID":"1983-075B","EPOCH":"2026-03-17T05:33:41.253408","MEAN_MOTION":15.38601451,"ECCENTRICITY":0.00208855,"INCLINATION":97.6136,"RA_OF_ASC_NODE":81.0953,"ARG_OF_PERICENTER":197.5339,"MEAN_ANOMALY":162.5187,"EPHEMERIS_TYPE":0,"CLASSIFICATION_TYPE":"U","NORAD_CAT_ID":14208,"ELEMENT_SET_NO":999,"REV_AT_EPOCH":33131,"BSTAR":0.00022234448,"MEAN_MOTION_DOT":8.448e-5,"MEAN_MOTION_DDOT":0},{"OBJECT_NAME":"COSMOS 1536","OBJECT_ID":"1984-013A","EPOCH":"2026-03-17T08:05:12.073056","MEAN_MOTION":15.23928442,"ECCENTRICITY":0.00125142,"INCLINATION":82.5415,"RA_OF_ASC_NODE":100.2465,"ARG_OF_PERICENTER":252.6996,"MEAN_ANOMALY":107.2872,"EPHEMERIS_TYPE":0,"CLASSIFICATION_TYPE":"U","NORAD_CAT_ID":14699,"ELEMENT_SET_NO":999,"REV_AT_EPOCH":27378,"BSTAR":0.00021661899,"MEAN_MOTION_DOT":5.277e-5,"MEAN_MOTION_DDOT":0},{"OBJECT_NAME":"SL-14 R/B","OBJECT_ID":"1984-027B","EPOCH":"2026-03-17T04:01:18.387552","MEAN_MOTION":14.85984488,"ECCENTRICITY":0.00168223,"INCLINATION":82.5396,"RA_OF_ASC_NODE":237.9979,"ARG_OF_PERICENTER":311.9398,"MEAN_ANOMALY":48.0384,"EPHEMERIS_TYPE":0,"CLASSIFICATION_TYPE":"U","NORAD_CAT_ID":14820,"ELEMENT_SET_NO":999,"REV_AT_EPOCH":24874,"BSTAR":5.192073e-5,"MEAN_MOTION_DOT":4.78e-6,"MEAN_MOTION_DDOT":0},{"OBJECT_NAME":"SL-8 R/B","OBJECT_ID":"1985-006B","EPOCH":"2026-03-16T23:23:54.274272","MEAN_MOTION":14.3778864,"ECCENTRICITY":0.00181371,"INCLINATION":74.0434,"RA_OF_ASC_NODE":247.7412,"ARG_OF_PERICENTER":163.6073,"MEAN_ANOMALY":315.0837,"EPHEMERIS_TYPE":0,"CLASSIFICATION_TYPE":"U","NORAD_CAT_ID":15483,"ELEMENT_SET_NO":999,"REV_AT_EPOCH":15507,"BSTAR":0.00011215912,"MEAN_MOTION_DOT":3.12e-6,"MEAN_MOTION_DDOT":0},{"OBJECT_NAME":"SL-12 R/B(2)","OBJECT_ID":"1985-042D","EPOCH":"2026-03-17T06:45:48.363264","MEAN_MOTION":14.21984561,"ECCENTRICITY":0.00330097,"INCLINATION":71.1065,"RA_OF_ASC_NODE":71.6871,"ARG_OF_PERICENTER":115.6258,"MEAN_ANOMALY":255.8529,"EPHEMERIS_TYPE":0,"CLASSIFICATION_TYPE":"U","NORAD_CAT_ID":15772,"ELEMENT_SET_NO":999,"REV_AT_EPOCH":11547,"BSTAR":3.8936469e-5,"MEAN_MOTION_DOT":3.9e-7,"MEAN_MOTION_DDOT":0},{"OBJECT_NAME":"SL-14 R/B","OBJECT_ID":"1985-069B","EPOCH":"2026-03-17T05:13:03.805824","MEAN_MOTION":14.86441874,"ECCENTRICITY":0.00191642,"INCLINATION":82.5297,"RA_OF_ASC_NODE":17.8559,"ARG_OF_PERICENTER":162.7944,"MEAN_ANOMALY":197.3926,"EPHEMERIS_TYPE":0,"CLASSIFICATION_TYPE":"U","NORAD_CAT_ID":15945,"ELEMENT_SET_NO":999,"REV_AT_EPOCH":17395,"BSTAR":5.1834143e-5,"MEAN_MOTION_DOT":4.84e-6,"MEAN_MOTION_DDOT":0},{"OBJECT_NAME":"SL-16 R/B","OBJECT_ID":"1985-097B","EPOCH":"2026-03-17T04:31:06.360384","MEAN_MOTION":14.16598826,"ECCENTRICITY":0.00096814,"INCLINATION":71.0014,"RA_OF_ASC_NODE":124.768,"ARG_OF_PERICENTER":250.4589,"MEAN_ANOMALY":166.3695,"EPHEMERIS_TYPE":0,"CLASSIFICATION_TYPE":"U","NORAD_CAT_ID":16182,"ELEMENT_SET_NO":999,"REV_AT_EPOCH":8829,"BSTAR":0.00011178724,"MEAN_MOTION_DOT":1.75e-6,"MEAN_MOTION_DDOT":0}]
